<?xml version="1.0" encoding="UTF-8"?>
<kml xmlns="http://www.opengis.net/kml/2.2" xmlns:gx="http://www.google.com/kml/ext/2.2" xmlns:kml="http://www.opengis.net/kml/2.2" xmlns:atom="http://www.w3.org/2005/Atom">
<Document id="document">
	<name>Untitled map project</name>
	<gx:CascadingStyle kml:id="__managed_style_03E2447B52423FBD8D7E_highlight">
		<Style>
			<IconStyle>
				<scale>1.2</scale>
				<Icon>
					<href>https://earth.google.com/earth/document/icon?color=1976d2&amp;id=2000&amp;scale=4</href>
				</Icon>
				<hotSpot x="64" y="128" xunits="pixels" yunits="insetPixels"/>
			</IconStyle>
			<LabelStyle>
			</LabelStyle>
			<LineStyle>
				<color>ff2dc0fb</color>
				<width>4.8</width>
			</LineStyle>
			<PolyStyle>
				<color>40ffffff</color>
			</PolyStyle>
			<BalloonStyle>
				<displayMode>hide</displayMode>
			</BalloonStyle>
		</Style>
	</gx:CascadingStyle>
	<gx:CascadingStyle kml:id="__managed_style_03E2447B52423FBD8D7E_normal">
		<Style>
			<IconStyle>
				<Icon>
					<href>https://earth.google.com/earth/document/icon?color=1976d2&amp;id=2000&amp;scale=4</href>
				</Icon>
				<hotSpot x="64" y="128" xunits="pixels" yunits="insetPixels"/>
			</IconStyle>
			<LabelStyle>
			</LabelStyle>
			<LineStyle>
				<color>ff2dc0fb</color>
				<width>3.2</width>
			</LineStyle>
			<PolyStyle>
				<color>40ffffff</color>
			</PolyStyle>
			<BalloonStyle>
				<displayMode>hide</displayMode>
			</BalloonStyle>
		</Style>
	</gx:CascadingStyle>
	<StyleMap id="__managed_style_03E2447B52423FBD8D7E">
		<Pair>
			<key>normal</key>
			<styleUrl>#__managed_style_03E2447B52423FBD8D7E_normal</styleUrl>
		</Pair>
		<Pair>
			<key>highlight</key>
			<styleUrl>#__managed_style_03E2447B52423FBD8D7E_highlight</styleUrl>
		</Pair>
	</StyleMap>
	<Placemark id="0B224BA3E3423FBD8CAC">
		<name>Klong bangpood</name>
		<LookAt>
			<longitude>100.5541935272932</longitude>
			<latitude>13.90836941533401</latitude>
			<altitude>0</altitude>
			<heading>16.10256117134794</heading>
			<tilt>0</tilt>
			<gx:fovy>35</gx:fovy>
			<range>1463.697617814624</range>
			<altitudeMode>absolute</altitudeMode>
		</LookAt>
		<styleUrl>#__managed_style_03E2447B52423FBD8D7E</styleUrl>
		<LineString>
			<coordinates>
				100.5004833813137,13.92499957074567,0 100.5010216612867,13.92478733696101,0 100.5018026979889,13.9247528484467,0 100.5032033499155,13.9237153557913,0 100.5030946884087,13.92217913275286,0 100.5039964732691,13.9220186541543,0 100.5041829312578,13.92147491774707,0 100.5047088157554,13.92132759054091,0 100.5050898112878,13.92165091666203,0 100.5058786287971,13.92142992344484,0 100.5058897849742,13.92093529997025,0 100.50687977762,13.92096512811682,0 100.5069162277948,13.92055557294345,0 100.5074173950586,13.92053803939834,0 100.5078498999919,13.91986393043204,0 100.5078480979343,13.91921934646491,0 100.5086200178313,13.91894164300035,0 100.5085889998642,13.91830524450593,0 100.5089299313555,13.91774894701089,0 100.5088242203447,13.91728706895166,0 100.5092371279166,13.91707922387656,0 100.5091106353,13.91665388629819,0 100.510916715013,13.91283021428358,0 100.5107194470854,13.91248613932907,0 100.5146749083157,13.91110133680161,0 100.5343771742908,13.90815557658412,0 100.536580412773,13.90740344707694,0 100.5396553680667,13.90748392307856,0 100.540541551098,13.90696627438916,0 100.5457499759043,13.90745828035515,0 100.5502860846188,13.90638850055542,0 100.5566023702348,13.90589443378553,0 
			</coordinates>
		</LineString>
	</Placemark>
	<Placemark id="025B596CEA423FBE6F28">
		<name>Klong Soui</name>
		<LookAt>
			<longitude>100.5382576842626</longitude>
			<latitude>13.85254553257321</latitude>
			<altitude>-2.121972597635136e-09</altitude>
			<heading>16.11048025643818</heading>
			<tilt>0</tilt>
			<gx:fovy>35</gx:fovy>
			<range>5782.527101368247</range>
			<altitudeMode>absolute</altitudeMode>
		</LookAt>
		<styleUrl>#__managed_style_03E2447B52423FBD8D7E</styleUrl>
		<LineString>
			<coordinates>
				100.5673468460056,13.95101194083778,0 100.5433144807053,13.84951007192796,0 
			</coordinates>
		</LineString>
	</Placemark>
	<Placemark id="0A71AE6104423FC98D74">
		<name>Untitled path</name>
		<LookAt>
			<longitude>100.5322127466787</longitude>
			<latitude>13.91517791601009</latitude>
			<altitude>-2.121972597635136e-09</altitude>
			<heading>16.11310655912536</heading>
			<tilt>0</tilt>
			<gx:fovy>35</gx:fovy>
			<range>3128.974240826366</range>
			<altitudeMode>absolute</altitudeMode>
		</LookAt>
		<styleUrl>#__managed_style_03E2447B52423FBD8D7E</styleUrl>
		<LineString>
			<coordinates>
				100.524451325299,13.94228637657169,0 100.5268695369211,13.93780987865292,0 100.5274609980013,13.93618695566748,0 100.5273575734646,13.93548373374772,0 100.5266270566553,13.93534171503148,0 100.5263064577248,13.9350205338239,0 100.5264001159002,13.9348015853321,0 100.5259690328069,13.9343315381535,0 100.5260377187379,13.93393974838983,0 100.5256929592646,13.93371526184799,0 100.5255655034659,13.93027287614334,0 100.5249427145375,13.9269955926843,0 100.5251547386157,13.92588004402478,0 100.5258996792619,13.92513334012505,0 100.5311460757637,13.91238543271546,0 100.5326644930456,13.90835346217572,0 
			</coordinates>
		</LineString>
	</Placemark>
	<Placemark id="007E322BA2423FCD0866">
		<name>klong Banmai</name>
		<LookAt>
			<longitude>100.5527513604227</longitude>
			<latitude>13.953094941426</latitude>
			<altitude>-7.073241992117119e-10</altitude>
			<heading>16.11485415650359</heading>
			<tilt>0</tilt>
			<gx:fovy>35</gx:fovy>
			<range>2285.853479324632</range>
			<altitudeMode>absolute</altitudeMode>
		</LookAt>
		<styleUrl>#__managed_style_03E2447B52423FBD8D7E</styleUrl>
		<LineString>
			<coordinates>
				100.5673602380891,13.95111488286928,0 100.5668080713542,13.95100231172729,0 100.5667591798381,13.9504025620043,0 100.5662648601221,13.95032095904514,0 100.5658829148455,13.9506168167579,0 100.5644531406599,13.95027843752897,0 100.5640601974355,13.94977516291124,0 100.5633178892983,13.94973162944084,0 100.5629279467235,13.94951064419312,0 100.5623152936704,13.94990264454609,0 100.5619964933241,13.94986619454411,0 100.561729875291,13.94940614188417,0 100.5614153951727,13.9493842087712,0 100.5610964620386,13.94989832078815,0 100.5607000273437,13.94995708130233,0 100.5604687847645,13.95044983439001,0 100.5599435261967,13.95071064173701,0 100.5590445132312,13.95068325864233,0 100.5571240658286,13.94982441934106,0 100.556674472049,13.95010786471063,0 100.5560189848466,13.95014951314264,0 100.5550727068599,13.95143827736408,0 100.5547947609767,13.9515673823819,0 100.5545134348749,13.95131897085833,0 100.5544665991061,13.95094486319594,0 100.5543065880489,13.95040734370886,0 100.554048999669,13.95033396837679,0 100.5534441609748,13.95139792742209,0 100.5526599591924,13.9511394071529,0 100.5511825457512,13.95172001810623,0 100.550404928885,13.95177163217806,0 100.5497666512268,13.95207537098513,0 100.548895831836,13.9521739090925,0 100.5483542482139,13.95265853136761,0 100.5471295354305,13.95264827560509,0 100.5457773181786,13.95256975123937,0 100.5455530991602,13.95325659384021,0 100.5451460160315,13.95332911255874,0 100.5448167584435,13.95294301652313,0 100.5443446079632,13.95301296955971,0 100.5439994220237,13.95318731852363,0 100.5438242229402,13.95362196886952,0 100.5441757463423,13.95424589231762,0 100.5439437757771,13.95442379281502,0 100.5428032807498,13.95406241056783,0 100.5423127492044,13.95366017368664,0 100.5420327125342,13.95352020424837,0 100.5415894047768,13.95429988640534,0 100.5414068630162,13.95462093392511,0 100.5420625381589,13.95531101249657,0 100.5419636575996,13.95555720252937,0 100.5405745497213,13.95565103572836,0 
			</coordinates>
		</LineString>
	</Placemark>
	<Placemark id="06A804402C423FCE4FC0">
		<name>Klog Ban kao</name>
		<LookAt>
			<longitude>100.5465829888038</longitude>
			<latitude>13.93432213049772</latitude>
			<altitude>0</altitude>
			<heading>16.11483479621391</heading>
			<tilt>0</tilt>
			<gx:fovy>35</gx:fovy>
			<range>3128.739472545642</range>
			<altitudeMode>absolute</altitudeMode>
		</LookAt>
		<styleUrl>#__managed_style_03E2447B52423FBD8D7E</styleUrl>
		<LineString>
			<coordinates>
				100.5391067408389,13.95059044582071,0 100.5404001264488,13.94933330878404,0 100.5401318521581,13.94872705010028,0 100.5416619311731,13.9472331716686,0 100.5425071299143,13.94712393822762,0 100.5439318540642,13.94527626290977,0 100.5439236863183,13.94451189056382,0 100.545471763847,13.94322591126576,0 100.5469839922954,13.94344071234266,0 100.5484529457928,13.94277320020317,0 100.5495870961334,13.94245513282713,0 100.5514061265881,13.94075237266062,0 100.5524052112822,13.93983326788302,0 100.5531445801625,13.93517772891786,0 100.5538871361883,13.93243652815619,0 
			</coordinates>
		</LineString>
	</Placemark>
	<Placemark id="0A4BA6C4AF423FCF721F">
		<name>Wat Saluk</name>
		<LookAt>
			<longitude>100.5293781958061</longitude>
			<latitude>13.9367288243638</latitude>
			<altitude>-2.121972597635136e-09</altitude>
			<heading>16.1148626451661</heading>
			<tilt>0</tilt>
			<gx:fovy>35</gx:fovy>
			<range>3487.13300880961</range>
			<altitudeMode>absolute</altitudeMode>
		</LookAt>
		<styleUrl>#__managed_style_03E2447B52423FBD8D7E</styleUrl>
		<LineString>
			<coordinates>
				100.5348431072165,13.93384850203698,0 100.5299770806573,13.94125128640538,0 100.5307141367701,13.94169156851667,0 100.5303644900399,13.94241697255871,0 100.5311114881842,13.94261921114219,0 100.530487992875,13.94357825533002,0 
			</coordinates>
		</LineString>
	</Placemark>
	<Placemark id="091B9F9394423FD02DC9">
		<name>Tiwanon Pipe</name>
		<LookAt>
			<longitude>100.5285751545238</longitude>
			<latitude>13.93095058296394</latitude>
			<altitude>0</altitude>
			<heading>16.11486125634644</heading>
			<tilt>0</tilt>
			<gx:fovy>35</gx:fovy>
			<range>4043.3128907222</range>
			<altitudeMode>absolute</altitudeMode>
		</LookAt>
		<styleUrl>#__managed_style_03E2447B52423FBD8D7E</styleUrl>
		<LineString>
			<coordinates>
				100.5377861355389,13.93569286765086,0 100.5256022590503,13.9254478377559,0 
			</coordinates>
		</LineString>
	</Placemark>
	<Placemark id="09F2C042FC423FD0D7CE">
		<name>Tiwanon Pipe 2</name>
		<LookAt>
			<longitude>100.5285751545238</longitude>
			<latitude>13.93095058296394</latitude>
			<altitude>0</altitude>
			<heading>16.11486125634644</heading>
			<tilt>0</tilt>
			<gx:fovy>35</gx:fovy>
			<range>4043.3128907222</range>
			<altitudeMode>absolute</altitudeMode>
		</LookAt>
		<styleUrl>#__managed_style_03E2447B52423FBD8D7E</styleUrl>
		<LineString>
			<coordinates>
				100.5311845581841,13.93074734704817,0 100.5382094543835,13.93664258957833,0 
			</coordinates>
		</LineString>
	</Placemark>
	<Placemark id="0CB509DEE0423FD1CBC7">
		<name>black turtle</name>
		<LookAt>
			<longitude>100.5508436116964</longitude>
			<latitude>13.91813530271125</latitude>
			<altitude>2.921514947570616</altitude>
			<heading>16.12103185897525</heading>
			<tilt>0</tilt>
			<gx:fovy>35</gx:fovy>
			<range>1366.237062715081</range>
			<altitudeMode>absolute</altitudeMode>
		</LookAt>
		<styleUrl>#__managed_style_03E2447B52423FBD8D7E</styleUrl>
		<LineString>
			<coordinates>
				100.5492527837898,13.92198519119119,0 100.5501391521411,13.92108475264991,0 100.5511851729285,13.92005250169706,0 100.5521917077366,13.91931692783778,0 
			</coordinates>
		</LineString>
	</Placemark>
	<Placemark id="02AE7C605A423FD33B94">
		<name>popular pump 4</name>
		<LookAt>
			<longitude>100.5505136621364</longitude>
			<latitude>13.9097515203301</latitude>
			<altitude>4.189395335894865</altitude>
			<heading>16.12001137066597</heading>
			<tilt>0</tilt>
			<gx:fovy>35</gx:fovy>
			<range>2719.497080259026</range>
			<altitudeMode>absolute</altitudeMode>
		</LookAt>
		<styleUrl>#__managed_style_03E2447B52423FBD8D7E</styleUrl>
		<LineString>
			<coordinates>
				100.5520248898027,13.9094842655654,0 100.5531498447947,13.90907697354156,0 100.5534667506115,13.9090799005022,0 100.5536584462803,13.90919444819076,0 100.5542975808907,13.9108194082277,0 100.555380468054,13.91042513529362,0 100.5570726728666,13.90913835035413,0 100.5574364410983,13.9091433153733,0 
			</coordinates>
		</LineString>
	</Placemark>
	<Placemark id="0213E03A6B423FD4774C">
		<name>Pump 4 2</name>
		<LookAt>
			<longitude>100.5505136621364</longitude>
			<latitude>13.9097515203301</latitude>
			<altitude>4.189395335894865</altitude>
			<heading>16.12001137066597</heading>
			<tilt>0</tilt>
			<gx:fovy>35</gx:fovy>
			<range>2719.497080259026</range>
			<altitudeMode>absolute</altitudeMode>
		</LookAt>
		<styleUrl>#__managed_style_03E2447B52423FBD8D7E</styleUrl>
		<LineString>
			<coordinates>
				100.5552812405743,13.91317283797718,0 100.5543288042296,13.91087174605231,0 
			</coordinates>
		</LineString>
	</Placemark>
	<Placemark id="07B8E544A1423FD4ECC4">
		<name>Pump 4 -3</name>
		<LookAt>
			<longitude>100.5505136621364</longitude>
			<latitude>13.9097515203301</latitude>
			<altitude>4.189395335894865</altitude>
			<heading>16.12001137066597</heading>
			<tilt>0</tilt>
			<gx:fovy>35</gx:fovy>
			<range>2719.497080259026</range>
			<altitudeMode>absolute</altitudeMode>
		</LookAt>
		<styleUrl>#__managed_style_03E2447B52423FBD8D7E</styleUrl>
		<LineString>
			<coordinates>
				100.5529407062966,13.91118437546523,0 100.5542684440147,13.91072068811315,0 
			</coordinates>
		</LineString>
	</Placemark>
	<Placemark id="08DDB81E73423FD5374E">
		<name>Pump 4 -4</name>
		<LookAt>
			<longitude>100.5505136621364</longitude>
			<latitude>13.9097515203301</latitude>
			<altitude>4.189395335894865</altitude>
			<heading>16.12001137066597</heading>
			<tilt>0</tilt>
			<gx:fovy>35</gx:fovy>
			<range>2719.497080259026</range>
			<altitudeMode>absolute</altitudeMode>
		</LookAt>
		<styleUrl>#__managed_style_03E2447B52423FBD8D7E</styleUrl>
		<LineString>
			<coordinates>
				100.5535217933541,13.91287137648427,0 100.5549128295849,13.91235881879146,0 
			</coordinates>
		</LineString>
	</Placemark>
	<Placemark id="0172412B81423FD5CE9E">
		<name>Pump 3-1</name>
		<LookAt>
			<longitude>100.5421673726326</longitude>
			<latitude>13.92378265286089</latitude>
			<altitude>2.170405128307449</altitude>
			<heading>16.11961580776624</heading>
			<tilt>0</tilt>
			<gx:fovy>35</gx:fovy>
			<range>7137.573986059288</range>
			<altitudeMode>absolute</altitudeMode>
		</LookAt>
		<styleUrl>#__managed_style_03E2447B52423FBD8D7E</styleUrl>
		<LineString>
			<coordinates>
				100.5557190466935,13.91415400326125,0 100.556484820395,13.91627114842897,0 100.5523818240617,13.91866862466629,0 100.5525883198817,13.91908767091552,0 100.5523195396899,13.91924188134178,0 
			</coordinates>
		</LineString>
	</Placemark>
	<Placemark id="084FB9DF38423FD6DC09">
		<name>Pump 5-1</name>
		<LookAt>
			<longitude>100.5466000500241</longitude>
			<latitude>13.90785451742471</latitude>
			<altitude>3.907870383679386</altitude>
			<heading>16.11919351216683</heading>
			<tilt>0</tilt>
			<gx:fovy>35</gx:fovy>
			<range>2002.427584162506</range>
			<altitudeMode>absolute</altitudeMode>
		</LookAt>
		<styleUrl>#__managed_style_03E2447B52423FBD8D7E</styleUrl>
		<LineString>
			<coordinates>
				100.5516838313133,13.90938167702225,0 100.5503449419948,13.9098704915889,0 100.5453520015808,13.91056172700333,0 100.544928927452,13.90816836016366,0 
			</coordinates>
		</LineString>
	</Placemark>
	<Placemark id="0F655C7ADA423FD7BFDC">
		<name>Retention - 1</name>
		<LookAt>
			<longitude>100.5477966973239</longitude>
			<latitude>13.91467192877431</latitude>
			<altitude>6.380359727622301</altitude>
			<heading>16.12318248940122</heading>
			<tilt>0</tilt>
			<gx:fovy>35</gx:fovy>
			<range>2185.559915590275</range>
			<altitudeMode>absolute</altitudeMode>
		</LookAt>
		<styleUrl>#__managed_style_03E2447B52423FBD8D7E</styleUrl>
		<LineString>
			<coordinates>
				100.5504952403705,13.91015171115201,0 100.5518927272283,13.91361179622044,0 
			</coordinates>
		</LineString>
	</Placemark>
	<Placemark id="0BC81C96BD423FD850CB">
		<name>Pump 3-2</name>
		<LookAt>
			<longitude>100.5477966973239</longitude>
			<latitude>13.91467192877431</latitude>
			<altitude>6.380359727622301</altitude>
			<heading>16.12318248940122</heading>
			<tilt>0</tilt>
			<gx:fovy>35</gx:fovy>
			<range>2185.559915590275</range>
			<altitudeMode>absolute</altitudeMode>
		</LookAt>
		<styleUrl>#__managed_style_03E2447B52423FBD8D7E</styleUrl>
		<LineString>
			<coordinates>
				100.54896847208,13.91043275153434,0 100.551967783453,13.91811954107467,0 100.5523327498326,13.91870632440372,0 
			</coordinates>
		</LineString>
	</Placemark>
	<Placemark id="0191858C18423FD958C9">
		<name>Pump 5-1</name>
		<LookAt>
			<longitude>100.5447146537478</longitude>
			<latitude>13.91227422042387</latitude>
			<altitude>3.117596125360551</altitude>
			<heading>16.12318132488567</heading>
			<tilt>0</tilt>
			<gx:fovy>35</gx:fovy>
			<range>2450.705904221395</range>
			<altitudeMode>absolute</altitudeMode>
		</LookAt>
		<styleUrl>#__managed_style_03E2447B52423FBD8D7E</styleUrl>
		<LineString>
			<coordinates>
				100.546945168327,13.91060604492623,0 100.5447703499719,13.91097261301407,0 100.5447039117562,13.91037895057803,0 100.5445553933843,13.91021402239315,0 100.5442277404215,13.90792209114741,0 100.5447314246184,13.90784806415713,0 100.5447191335347,13.90752196671269,0 
			</coordinates>
		</LineString>
	</Placemark>
	<Placemark id="0A03332F93423FD9EA40">
		<name>Pump 5-2</name>
		<LookAt>
			<longitude>100.5428959765488</longitude>
			<latitude>13.91252725994976</latitude>
			<altitude>3.883801230459478</altitude>
			<heading>16.12318084174671</heading>
			<tilt>0</tilt>
			<gx:fovy>35</gx:fovy>
			<range>2430.893877709459</range>
			<altitudeMode>absolute</altitudeMode>
		</LookAt>
		<styleUrl>#__managed_style_03E2447B52423FBD8D7E</styleUrl>
		<LineString>
			<coordinates>
				100.5489760992739,13.91638916440665,0 100.5469985538629,13.9106001377887,0 
			</coordinates>
		</LineString>
	</Placemark>
	<Placemark id="0EE89194B3423FDA6F5E">
		<name>Pump 5 -3</name>
		<LookAt>
			<longitude>100.5428959765488</longitude>
			<latitude>13.91252725994976</latitude>
			<altitude>3.883801230459478</altitude>
			<heading>16.12318084174671</heading>
			<tilt>0</tilt>
			<gx:fovy>35</gx:fovy>
			<range>2430.893877709459</range>
			<altitudeMode>absolute</altitudeMode>
		</LookAt>
		<styleUrl>#__managed_style_03E2447B52423FBD8D7E</styleUrl>
		<LineString>
			<coordinates>
				100.548512149153,13.91653329127085,0 100.5460298050913,13.9169014320526,0 100.5446897685909,13.91122081811163,0 100.5447784699491,13.91094966470929,0 
			</coordinates>
		</LineString>
	</Placemark>
	<Placemark id="0AF6111CA0423FDAE0B4">
		<name>Retention - Pump 3</name>
		<LookAt>
			<longitude>100.5458535388224</longitude>
			<latitude>13.91533262664769</latitude>
			<altitude>4.72024639134845</altitude>
			<heading>16.12318074978604</heading>
			<tilt>0</tilt>
			<gx:fovy>35</gx:fovy>
			<range>2470.958490541962</range>
			<altitudeMode>absolute</altitudeMode>
		</LookAt>
		<styleUrl>#__managed_style_03E2447B52423FBD8D7E</styleUrl>
		<LineString>
			<coordinates>
				100.5518454122692,13.91357134594799,0 100.5504527200068,13.91408727675183,0 
			</coordinates>
		</LineString>
	</Placemark>
	<Placemark id="0FC77BF789423FDB5294">
		<name>IEC - PUMP 3</name>
		<LookAt>
			<longitude>100.5458535388224</longitude>
			<latitude>13.91533262664769</latitude>
			<altitude>4.72024639134845</altitude>
			<heading>16.12318074978604</heading>
			<tilt>0</tilt>
			<gx:fovy>35</gx:fovy>
			<range>2470.958490541962</range>
			<altitudeMode>absolute</altitudeMode>
		</LookAt>
		<styleUrl>#__managed_style_03E2447B52423FBD8D7E</styleUrl>
		<LineString>
			<coordinates>
				100.5496847095579,13.91631853386616,0 100.5511778214764,13.91609371770199,0 
			</coordinates>
		</LineString>
	</Placemark>
	<Placemark id="0215243566423FDD2453">
		<name>Lake to Pump 10</name>
		<LookAt>
			<longitude>100.5430017044976</longitude>
			<latitude>13.90648647933576</latitude>
			<altitude>3.063451100161267</altitude>
			<heading>16.12487398697854</heading>
			<tilt>0</tilt>
			<gx:fovy>35</gx:fovy>
			<range>1505.528037849872</range>
			<altitudeMode>absolute</altitudeMode>
		</LookAt>
		<styleUrl>#__managed_style_03E2447B52423FBD8D7E</styleUrl>
		<LineString>
			<coordinates>
				100.5401802024097,13.92962294876707,0 100.5451111840658,13.92384944644471,0 100.5456608141611,13.922781597184,0 100.5458985442412,13.92201639578369,0 100.5459008864407,13.92110160182385,0 100.5452549722506,13.9172963271436,0 100.5432203894059,13.917639540741,0 100.5417855300216,13.90915715429973,0 100.5417218890169,13.90853985040356,0 100.5418258971702,13.90789279048834,0 100.5421570245165,13.90783349994526,0 100.5421202015079,13.9071250124577,0 
			</coordinates>
		</LineString>
	</Placemark>
	<Placemark id="0F7A2192B6423FDDEFEC">
		<name>BS - Pump 2</name>
		<LookAt>
			<longitude>100.5370818648519</longitude>
			<latitude>13.91852341212382</latitude>
			<altitude>4.436560201554389</altitude>
			<heading>16.12554653769604</heading>
			<tilt>0</tilt>
			<gx:fovy>35</gx:fovy>
			<range>3536.656165168389</range>
			<altitudeMode>absolute</altitudeMode>
		</LookAt>
		<styleUrl>#__managed_style_03E2447B52423FBD8D7E</styleUrl>
		<LineString>
			<coordinates>
				100.5361665076013,13.92425299286047,0 100.5401719209278,13.91947139693388,0 100.540662136463,13.91849867294335,0 100.5406498060756,13.91804445464338,0 100.5431567477721,13.9176589522838,0 
			</coordinates>
		</LineString>
	</Placemark>
	<Placemark id="0ED4C7B416423FDECAA3">
		<name>BS-mST 7</name>
		<LookAt>
			<longitude>100.5368062190047</longitude>
			<latitude>13.9110511397642</latitude>
			<altitude>1.782582433033486</altitude>
			<heading>16.12554633405919</heading>
			<tilt>0</tilt>
			<gx:fovy>35</gx:fovy>
			<range>1786.410503921506</range>
			<altitudeMode>absolute</altitudeMode>
		</LookAt>
		<styleUrl>#__managed_style_03E2447B52423FBD8D7E</styleUrl>
		<LineString>
			<coordinates>
				100.5397115066816,13.91369014298169,0 100.5393252383407,13.91225351569913,0 100.5380459059857,13.90938082536917,0 100.538009090795,13.90745544878613,0 
			</coordinates>
		</LineString>
	</Placemark>
	<Placemark id="035806B2F3423FDFA08F">
		<name>bs-mst 8</name>
		<LookAt>
			<longitude>100.5324397817456</longitude>
			<latitude>13.91178793686849</latitude>
			<altitude>5.240179443685067</altitude>
			<heading>16.12554502543258</heading>
			<tilt>0</tilt>
			<gx:fovy>35</gx:fovy>
			<range>4626.589635630953</range>
			<altitudeMode>absolute</altitudeMode>
		</LookAt>
		<styleUrl>#__managed_style_03E2447B52423FBD8D7E</styleUrl>
		<LineString>
			<coordinates>
				100.5397617215997,13.91567167480175,0 100.5390753816803,13.91219593379699,0 100.5377703134427,13.90951753638675,0 100.5377438241312,13.90754793912904,0 
			</coordinates>
		</LineString>
	</Placemark>
	<Placemark id="067B157BAD423FE1E8B8">
		<name>bs-Tiwanon</name>
		<LookAt>
			<longitude>100.5272768836094</longitude>
			<latitude>13.92452403910166</latitude>
			<altitude>2.118340018208915</altitude>
			<heading>16.12685513718836</heading>
			<tilt>0</tilt>
			<gx:fovy>35</gx:fovy>
			<range>5625.513017343475</range>
			<altitudeMode>absolute</altitudeMode>
		</LookAt>
		<styleUrl>#__managed_style_03E2447B52423FBD8D7E</styleUrl>
		<LineString>
			<coordinates>
				100.5357497284308,13.9238921138848,0 100.5306916661002,13.92964431340357,0 
			</coordinates>
		</LineString>
	</Placemark>
	<Placemark id="051C89A143423FE25394">
		<name>C12-P1</name>
		<LookAt>
			<longitude>100.5272768836094</longitude>
			<latitude>13.92452403910166</latitude>
			<altitude>2.118340018208915</altitude>
			<heading>16.12685513718836</heading>
			<tilt>0</tilt>
			<gx:fovy>35</gx:fovy>
			<range>5625.513017343475</range>
			<altitudeMode>absolute</altitudeMode>
		</LookAt>
		<styleUrl>#__managed_style_03E2447B52423FBD8D7E</styleUrl>
		<LineString>
			<coordinates>
				100.5401883293109,13.9296010204857,0 100.5350881300143,13.92537504123622,0 
			</coordinates>
		</LineString>
	</Placemark>
	<Placemark id="0A325E3169423FE3966F">
		<name>bs - pump 2</name>
		<LookAt>
			<longitude>100.5395599653625</longitude>
			<latitude>13.9168178326014</latitude>
			<altitude>5.182410234997807</altitude>
			<heading>16.12685744861776</heading>
			<tilt>0</tilt>
			<gx:fovy>35</gx:fovy>
			<range>1764.926538102155</range>
			<altitudeMode>absolute</altitudeMode>
		</LookAt>
		<styleUrl>#__managed_style_03E2447B52423FBD8D7E</styleUrl>
		<LineString>
			<coordinates>
				100.5397400298057,13.91384903834538,0 100.5406535459421,13.91739736949404,0 100.5406452853288,13.91805577728619,0 
			</coordinates>
		</LineString>
	</Placemark>
	<Placemark id="032BE12A63423FEAFBF6">
		<name>BS-MST 1,2</name>
		<LookAt>
			<longitude>100.5347445317128</longitude>
			<latitude>13.9083171648198</latitude>
			<altitude>2.632019655495808</altitude>
			<heading>16.13881485439398</heading>
			<tilt>0</tilt>
			<gx:fovy>35</gx:fovy>
			<range>4815.875341557548</range>
			<altitudeMode>absolute</altitudeMode>
		</LookAt>
		<styleUrl>#__managed_style_03E2447B52423FBD8D7E</styleUrl>
		<LineString>
			<coordinates>
				100.538217370977,13.90125778851272,0 100.5382836291238,13.90232197598289,0 100.537995406445,13.90724836725465,0 
			</coordinates>
		</LineString>
	</Placemark>
	<Placemark id="08DC151462423FEB5580">
		<name>PS 10</name>
		<LookAt>
			<longitude>100.5429496460894</longitude>
			<latitude>13.90702573474785</latitude>
			<altitude>3.810614285224467</altitude>
			<heading>16.13881371141087</heading>
			<tilt>0</tilt>
			<gx:fovy>35</gx:fovy>
			<range>1186.116892100108</range>
			<altitudeMode>absolute</altitudeMode>
		</LookAt>
		<styleUrl>#__managed_style_03E2447B52423FBD8D7E</styleUrl>
		<Point>
			<coordinates>100.5421771733614,13.90717767258494,3.550364018075618</coordinates>
		</Point>
	</Placemark>
	<Placemark id="050A4FF642423FEB88EE">
		<name>PS5</name>
		<LookAt>
			<longitude>100.5429496460894</longitude>
			<latitude>13.90702573474785</latitude>
			<altitude>3.810614285224467</altitude>
			<heading>16.13881371141087</heading>
			<tilt>0</tilt>
			<gx:fovy>35</gx:fovy>
			<range>1186.116892100108</range>
			<altitudeMode>absolute</altitudeMode>
		</LookAt>
		<styleUrl>#__managed_style_03E2447B52423FBD8D7E</styleUrl>
		<Point>
			<coordinates>100.544784243288,13.90759410067229,2.030581400852391</coordinates>
		</Point>
	</Placemark>
	<Placemark id="0A0739398F423FEBA884">
		<name>PS9</name>
		<LookAt>
			<longitude>100.5429496460894</longitude>
			<latitude>13.90702573474785</latitude>
			<altitude>3.810614285224467</altitude>
			<heading>16.13881371141087</heading>
			<tilt>0</tilt>
			<gx:fovy>35</gx:fovy>
			<range>1186.116892100108</range>
			<altitudeMode>absolute</altitudeMode>
		</LookAt>
		<styleUrl>#__managed_style_03E2447B52423FBD8D7E</styleUrl>
		<Point>
			<coordinates>100.5435978546514,13.90737898551727,3.520512239134388</coordinates>
		</Point>
	</Placemark>
	<Placemark id="09015BA52B423FEBE617">
		<name>PS4</name>
		<LookAt>
			<longitude>100.5583887587652</longitude>
			<latitude>13.90883767371741</latitude>
			<altitude>5.284084411963303</altitude>
			<heading>16.14663572204591</heading>
			<tilt>0</tilt>
			<gx:fovy>35</gx:fovy>
			<range>972.5460684059362</range>
			<altitudeMode>absolute</altitudeMode>
		</LookAt>
		<styleUrl>#__managed_style_03E2447B52423FBD8D7E</styleUrl>
		<Point>
			<coordinates>100.5573046267516,13.90929168613317,3.146157360178055</coordinates>
		</Point>
	</Placemark>
	<Placemark id="01CFF0F47C423FEC2D90">
		<name>PS3</name>
		<LookAt>
			<longitude>100.5475210403864</longitude>
			<latitude>13.92097354039251</latitude>
			<altitude>2.012394649919995</altitude>
			<heading>16.14288546972023</heading>
			<tilt>0</tilt>
			<gx:fovy>35</gx:fovy>
			<range>5985.816030802089</range>
			<altitudeMode>absolute</altitudeMode>
		</LookAt>
		<styleUrl>#__managed_style_03E2447B52423FBD8D7E</styleUrl>
		<Point>
			<coordinates>100.5521454200088,13.91927899672501,4.59312485976596</coordinates>
		</Point>
	</Placemark>
	<Placemark id="0DAE873CA5423FECC348">
		<name>IF-Ro</name>
		<LookAt>
			<longitude>100.5453149612038</longitude>
			<latitude>13.91297936756627</latitude>
			<altitude>4.015147374652226</altitude>
			<heading>16.14288530799099</heading>
			<tilt>0</tilt>
			<gx:fovy>35</gx:fovy>
			<range>912.578202030418</range>
			<altitudeMode>absolute</altitudeMode>
		</LookAt>
		<styleUrl>#__managed_style_03E2447B52423FBD8D7E</styleUrl>
		<LineString>
			<coordinates>
				100.5452144124537,13.91719610961462,0 100.5446900786483,13.91427916144373,0 100.545172049045,13.91416255336675,0 100.544566430579,13.9114235249187,0 100.5446963346059,13.91122405179561,0 
			</coordinates>
		</LineString>
	</Placemark>
	<Placemark id="0353DC3AE4423FEDCA50">
		<name>Lake - IF</name>
		<LookAt>
			<longitude>100.547264839598</longitude>
			<latitude>13.92212318939711</latitude>
			<altitude>4.785166286954398</altitude>
			<heading>16.14398084661964</heading>
			<tilt>0</tilt>
			<gx:fovy>35</gx:fovy>
			<range>2536.607464651752</range>
			<altitudeMode>absolute</altitudeMode>
		</LookAt>
		<styleUrl>#__managed_style_03E2447B52423FBD8D7E</styleUrl>
		<LineString>
			<coordinates>
				100.5444207570032,13.92471172094596,0 100.545295292696,13.92541919902693,0 100.5470443355104,13.92371774089423,0 100.5483469397524,13.92345495787382,0 100.5490731433332,13.92224527817856,0 100.5492907272119,13.92201421483067,0 100.5466473262681,13.91837674040771,0 100.5461647477536,13.91749752845936,0 100.5460443604005,13.91694583989503,0 
			</coordinates>
		</LineString>
	</Placemark>
	<Placemark id="0E690A6D0A423FEE636C">
		<name>Lake - IF2</name>
		<LookAt>
			<longitude>100.5446258884735</longitude>
			<latitude>13.91937259233552</latitude>
			<altitude>2.878004407314882</altitude>
			<heading>16.14527282105054</heading>
			<tilt>0</tilt>
			<gx:fovy>35</gx:fovy>
			<range>2504.930361475563</range>
			<altitudeMode>absolute</altitudeMode>
		</LookAt>
		<styleUrl>#__managed_style_03E2447B52423FBD8D7E</styleUrl>
		<LineString>
			<coordinates>
				100.5490362961755,13.92224708270509,0 100.5464488287641,13.91872305130431,0 100.5455495126155,13.91721529299131,0 100.5460507410895,13.91714499735798,0 
			</coordinates>
		</LineString>
	</Placemark>
	<Placemark id="03136ED225423FEEB65C">
		<name>Lake - IF3</name>
		<LookAt>
			<longitude>100.5446258884735</longitude>
			<latitude>13.91937259233552</latitude>
			<altitude>2.878004407314882</altitude>
			<heading>16.14527282105054</heading>
			<tilt>0</tilt>
			<gx:fovy>35</gx:fovy>
			<range>2504.930361475563</range>
			<altitudeMode>absolute</altitudeMode>
		</LookAt>
		<styleUrl>#__managed_style_03E2447B52423FBD8D7E</styleUrl>
		<LineString>
			<coordinates>
				100.5464281997501,13.918799254544,0 100.5459913439756,13.91869667047881,0 100.5457077941094,13.91755095194272,0 
			</coordinates>
		</LineString>
	</Placemark>
	<Placemark id="0A316FA6DE423FEF48C8">
		<name>BS- Tiwanon 2</name>
		<LookAt>
			<longitude>100.529495980545</longitude>
			<latitude>13.92732518512977</latitude>
			<altitude>3.95860334060085</altitude>
			<heading>16.14526711317715</heading>
			<tilt>0</tilt>
			<gx:fovy>35</gx:fovy>
			<range>2454.984674484003</range>
			<altitudeMode>absolute</altitudeMode>
		</LookAt>
		<styleUrl>#__managed_style_03E2447B52423FBD8D7E</styleUrl>
		<LineString>
			<coordinates>
				100.5359968974759,13.92423199070283,0 100.5309894568508,13.92994720345468,0 
			</coordinates>
		</LineString>
	</Placemark>
	<Placemark id="03684F63A5423FEF8B23">
		<name>MP - BS</name>
		<LookAt>
			<longitude>100.529495980545</longitude>
			<latitude>13.92732518512977</latitude>
			<altitude>3.95860334060085</altitude>
			<heading>16.14526711317715</heading>
			<tilt>0</tilt>
			<gx:fovy>35</gx:fovy>
			<range>2454.984674484003</range>
			<altitudeMode>absolute</altitudeMode>
		</LookAt>
		<styleUrl>#__managed_style_03E2447B52423FBD8D7E</styleUrl>
		<Point>
			<coordinates>100.5317307503698,13.92914384634677,4.112519769937331</coordinates>
		</Point>
	</Placemark>
	<Placemark id="01748F9E09423FEFCC24">
		<name>MP-BS</name>
		<LookAt>
			<longitude>100.529495980545</longitude>
			<latitude>13.92732518512977</latitude>
			<altitude>3.95860334060085</altitude>
			<heading>16.14526711317715</heading>
			<tilt>0</tilt>
			<gx:fovy>35</gx:fovy>
			<range>2454.984674484003</range>
			<altitudeMode>absolute</altitudeMode>
		</LookAt>
		<styleUrl>#__managed_style_03E2447B52423FBD8D7E</styleUrl>
		<Point>
			<coordinates>100.5311706977318,13.92921941746085,3.04947223079252</coordinates>
		</Point>
	</Placemark>
	<Placemark id="0F249F557B423FF0008E">
		<name>C12-1</name>
		<LookAt>
			<longitude>100.529495980545</longitude>
			<latitude>13.92732518512977</latitude>
			<altitude>3.95860334060085</altitude>
			<heading>16.14526711317715</heading>
			<tilt>0</tilt>
			<gx:fovy>35</gx:fovy>
			<range>2454.984674484003</range>
			<altitudeMode>absolute</altitudeMode>
		</LookAt>
		<styleUrl>#__managed_style_03E2447B52423FBD8D7E</styleUrl>
		<Point>
			<coordinates>100.5350847757395,13.92555107422097,2.98353961527646</coordinates>
		</Point>
	</Placemark>
	<Placemark id="053E3F97FA423FF03BD7">
		<name>C12-2</name>
		<LookAt>
			<longitude>100.529495980545</longitude>
			<latitude>13.92732518512977</latitude>
			<altitude>3.95860334060085</altitude>
			<heading>16.14526711317715</heading>
			<tilt>0</tilt>
			<gx:fovy>35</gx:fovy>
			<range>2454.984674484003</range>
			<altitudeMode>absolute</altitudeMode>
		</LookAt>
		<styleUrl>#__managed_style_03E2447B52423FBD8D7E</styleUrl>
		<Point>
			<coordinates>100.5354004526699,13.92542098395306,3.447992508572548</coordinates>
		</Point>
	</Placemark>
	<Placemark id="0F304102E0423FF112EC">
		<name>MST-7</name>
		<LookAt>
			<longitude>100.5384268872814</longitude>
			<latitude>13.90941682328534</latitude>
			<altitude>3.63649952161643</altitude>
			<heading>16.15431631664694</heading>
			<tilt>0</tilt>
			<gx:fovy>35</gx:fovy>
			<range>2253.299509162316</range>
			<altitudeMode>absolute</altitudeMode>
		</LookAt>
		<styleUrl>#__managed_style_03E2447B52423FBD8D7E</styleUrl>
		<Point>
			<coordinates>100.5381570622999,13.90750649513722,3.522873311360379</coordinates>
		</Point>
	</Placemark>
	<Placemark id="07A6946B8D423FF14023">
		<name>MST-8</name>
		<LookAt>
			<longitude>100.5384268872814</longitude>
			<latitude>13.90941682328534</latitude>
			<altitude>3.63649952161643</altitude>
			<heading>16.15431631664694</heading>
			<tilt>0</tilt>
			<gx:fovy>35</gx:fovy>
			<range>2253.299509162316</range>
			<altitudeMode>absolute</altitudeMode>
		</LookAt>
		<styleUrl>#__managed_style_03E2447B52423FBD8D7E</styleUrl>
		<Point>
			<coordinates>100.5375872089617,13.90756535733433,3.529337169505853</coordinates>
		</Point>
	</Placemark>
	<Placemark id="0AE6CB5257423FF16F24">
		<name>MST2</name>
		<LookAt>
			<longitude>100.5384268872814</longitude>
			<latitude>13.90941682328534</latitude>
			<altitude>3.63649952161643</altitude>
			<heading>16.15431631664694</heading>
			<tilt>0</tilt>
			<gx:fovy>35</gx:fovy>
			<range>2253.299509162316</range>
			<altitudeMode>absolute</altitudeMode>
		</LookAt>
		<styleUrl>#__managed_style_03E2447B52423FBD8D7E</styleUrl>
		<Point>
			<coordinates>100.5381200047334,13.90725133799539,4.039521742508039</coordinates>
		</Point>
	</Placemark>
	<Placemark id="0E9AD6BBC9423FF19838">
		<name>MST1</name>
		<LookAt>
			<longitude>100.5384268872814</longitude>
			<latitude>13.90941682328534</latitude>
			<altitude>3.63649952161643</altitude>
			<heading>16.15431631664694</heading>
			<tilt>0</tilt>
			<gx:fovy>35</gx:fovy>
			<range>2253.299509162316</range>
			<altitudeMode>absolute</altitudeMode>
		</LookAt>
		<styleUrl>#__managed_style_03E2447B52423FBD8D7E</styleUrl>
		<Point>
			<coordinates>100.5376307695631,13.90718628412524,4.112784244114009</coordinates>
		</Point>
	</Placemark>
	<Placemark id="00F6FEC965423FF1DBA1">
		<name>PS2</name>
		<LookAt>
			<longitude>100.5416568903597</longitude>
			<latitude>13.91672985391483</latitude>
			<altitude>4.841751026098791</altitude>
			<heading>16.16135922670654</heading>
			<tilt>0</tilt>
			<gx:fovy>35</gx:fovy>
			<range>1954.291604128958</range>
			<altitudeMode>absolute</altitudeMode>
		</LookAt>
		<styleUrl>#__managed_style_03E2447B52423FBD8D7E</styleUrl>
		<Point>
			<coordinates>100.5431991648798,13.9176074346095,3.483831591638626</coordinates>
		</Point>
	</Placemark>
	<Placemark id="0EEB1C1D38423FF21966">
		<name>PS Parkkret 13</name>
		<LookAt>
			<longitude>100.5155256076577</longitude>
			<latitude>13.90995083914035</latitude>
			<altitude>4.445808321164946</altitude>
			<heading>16.16134834556324</heading>
			<tilt>0</tilt>
			<gx:fovy>35</gx:fovy>
			<range>3485.68843875546</range>
			<altitudeMode>absolute</altitudeMode>
		</LookAt>
		<styleUrl>#__managed_style_03E2447B52423FBD8D7E</styleUrl>
		<Point>
			<coordinates>100.5184033746999,13.9103224262425,3.995217595817977</coordinates>
		</Point>
	</Placemark>
	<Placemark id="0BB946FEA8423FF2918C">
		<name>PS Wat Koa</name>
		<LookAt>
			<longitude>100.4975009291694</longitude>
			<latitude>13.91596304996795</latitude>
			<altitude>6.932427197360336</altitude>
			<heading>16.16334443670728</heading>
			<tilt>0</tilt>
			<gx:fovy>35</gx:fovy>
			<range>10766.27229212201</range>
			<altitudeMode>absolute</altitudeMode>
		</LookAt>
		<styleUrl>#__managed_style_03E2447B52423FBD8D7E</styleUrl>
		<Point>
			<coordinates>100.5009140312676,13.92488639258665,6.989475620054224</coordinates>
		</Point>
	</Placemark>
	<Placemark id="0123981669423FF2F579">
		<name>PS Klong Suai</name>
		<LookAt>
			<longitude>100.5531916780931</longitude>
			<latitude>13.90486777769789</latitude>
			<altitude>6.960639421442167</altitude>
			<heading>16.17673002556618</heading>
			<tilt>0</tilt>
			<gx:fovy>35</gx:fovy>
			<range>10766.24484984437</range>
			<altitudeMode>absolute</altitudeMode>
		</LookAt>
		<styleUrl>#__managed_style_03E2447B52423FBD8D7E</styleUrl>
		<Point>
			<coordinates>100.5562688190873,13.90577225234095,6.955183593647365</coordinates>
		</Point>
	</Placemark>
	<Placemark id="044B8E099E423FF341AE">
		<name>PS Klong - banmai</name>
		<LookAt>
			<longitude>100.5437314302943</longitude>
			<latitude>13.94302455691158</latitude>
			<altitude>6.948880121264063</altitude>
			<heading>16.17823540442987</heading>
			<tilt>0</tilt>
			<gx:fovy>35</gx:fovy>
			<range>18917.7687188331</range>
			<altitudeMode>absolute</altitudeMode>
		</LookAt>
		<styleUrl>#__managed_style_03E2447B52423FBD8D7E</styleUrl>
		<Point>
			<coordinates>100.5628323195026,13.93394833595711,6.969806402479184</coordinates>
		</Point>
	</Placemark>
	<Placemark id="04F3431A9A423FF3EA18">
		<name>PS Bangplung</name>
		<LookAt>
			<longitude>100.5298995620789</longitude>
			<latitude>13.93803821162307</latitude>
			<altitude>4.191275803961867</altitude>
			<heading>16.17823076958094</heading>
			<tilt>0</tilt>
			<gx:fovy>35</gx:fovy>
			<range>4231.545069519198</range>
			<altitudeMode>absolute</altitudeMode>
		</LookAt>
		<styleUrl>#__managed_style_03E2447B52423FBD8D7E</styleUrl>
		<Point>
			<coordinates>100.5246727423475,13.94213459639774,2.450246879516493</coordinates>
		</Point>
	</Placemark>
	<Placemark id="0C42E390B2423FF43784">
		<name>PS Wat Saluk</name>
		<LookAt>
			<longitude>100.5298995620789</longitude>
			<latitude>13.93803821162307</latitude>
			<altitude>4.191275803961867</altitude>
			<heading>16.17823076958094</heading>
			<tilt>0</tilt>
			<gx:fovy>35</gx:fovy>
			<range>4231.545069519198</range>
			<altitudeMode>absolute</altitudeMode>
		</LookAt>
		<styleUrl>#__managed_style_03E2447B52423FBD8D7E</styleUrl>
		<Point>
			<coordinates>100.531053382888,13.94271875442578,2.452531229701245</coordinates>
		</Point>
	</Placemark>
</Document>
</kml>
